[{"OBJECT_NAME":"METOP-C","OBJECT_ID":"2018-087A","EPOCH":"2026-03-09T21:24:06.212448","MEAN_MOTION":14.21497031,"ECCENTRICITY":0.0002203,"INCLINATION":98.6765,"RA_OF_ASC_NODE":130.2612,"ARG_OF_PERICENTER":99.586,"MEAN_ANOMALY":260.5566,"EPHEMERIS_TYPE":0,"CLASSIFICATION_TYPE":"U","NORAD_CAT_ID":43689,"ELEMENT_SET_NO":999,"REV_AT_EPOCH":38072,"BSTAR":8.1967538e-5,"MEAN_MOTION_DOT":1.36e-6,"MEAN_MOTION_DDOT":0},{"OBJECT_NAME":"SL-16 DEB","OBJECT_ID":"1992-093D","EPOCH":"2026-03-09T16:37:07.483008","MEAN_MOTION":14.33007298,"ECCENTRICITY":0.00586478,"INCLINATION":70.8322,"RA_OF_ASC_NODE":177.5059,"ARG_OF_PERICENTER":145.7646,"MEAN_ANOMALY":329.2933,"EPHEMERIS_TYPE":0,"CLASSIFICATION_TYPE":"U","NORAD_CAT_ID":22289,"ELEMENT_SET_NO":999,"REV_AT_EPOCH":73361,"BSTAR":0.00015262957,"MEAN_MOTION_DOT":3.75e-6,"MEAN_MOTION_DDOT":0}]
